[{"OBJECT_NAME":"STARLINK-11698 [DTC]","OBJECT_ID":"2025-124J","EPOCH":"2026-03-09T22:18:08.560800","MEAN_MOTION":15.71025117,"ECCENTRICITY":0.00019705,"INCLINATION":43.0007,"RA_OF_ASC_NODE":27.628,"ARG_OF_PERICENTER":254.1646,"MEAN_ANOMALY":105.9004,"EPHEMERIS_TYPE":0,"CLASSIFICATION_TYPE":"U","NORAD_CAT_ID":64325,"ELEMENT_SET_NO":999,"REV_AT_EPOCH":4287,"BSTAR":0.0023397566,"MEAN_MOTION_DOT":0.0031382,"MEAN_MOTION_DDOT":0},{"OBJECT_NAME":"OBJECT E","OBJECT_ID":"2021-035E","EPOCH":"2026-02-24T23:27:52.334784","MEAN_MOTION":15.69205353,"ECCENTRICITY":0.0007182,"INCLINATION":41.4547,"RA_OF_ASC_NODE":257.9148,"ARG_OF_PERICENTER":354.279,"MEAN_ANOMALY":5.7969,"EPHEMERIS_TYPE":0,"CLASSIFICATION_TYPE":"U","NORAD_CAT_ID":63523,"ELEMENT_SET_NO":999,"REV_AT_EPOCH":5075,"BSTAR":0.00060614223,"MEAN_MOTION_DOT":0.00073106,"MEAN_MOTION_DDOT":0}]
